ARIANE 5 R/B            
1 28499U 04049H   25322.79942664  .00001143  00000+0  13308-3 0  9996
2 28499  98.2517 122.2252 0084486 351.3260   8.6489 14.84940323129333
CZ-2D R/B               
1 28738U 05024B   25322.80707822  .00028786  00000+0  48458-3 0  9999
2 28738  97.3649 329.6553 0008133  74.1907 286.0242 15.51643762122542
ALOS (DAICHI)           
1 28931U 06002A   25322.38571992  .00002349  00000+0  40552-3 0  9995
2 28931  98.1050 274.0517 0000834  59.1645 300.9643 14.69379914 57133
H-2A R/B                
1 28932U 06002B   25322.86359575  .00011281  00000+0  60416-3 0  9996
2 28932  98.2301  95.6773 0054516 258.0143 101.4972 15.13916200 77657
RESURS-DK 1             
1 29228U 06021A   25322.55187463  .00002842  00000+0  17145-3 0  9991
2 29228  69.9310 164.3377 0007142 279.6409  80.3950 15.11966985 70727
CZ-4B R/B               
1 29507U 06046C   25322.60639669  .00006116  00000+0  32193-3 0  9992
2 29507  97.5772   2.8118 0032833 293.3416  66.4363 15.15537792 43212
CZ-2C R/B               
1 31114U 07010B   25322.76472176  .00000202  00000+0  11221-3 0  9995
2 31114  98.3967  76.6236 0057937 256.4380 103.0339 14.20195577963977
COSMO-SKYMED 1          
1 31598U 07023A   25322.83704351  .00004569  00000+0  41762-3 0  9999
2 31598  97.8840 148.0834 0001061  81.0428 279.0913 14.95519629998326
COSMOS 2428             
1 31792U 07029A   25322.73785601 -.00000172  00000+0 -66867-4 0  9999
2 31792  70.9369  76.2701 0002413  64.6600 295.4771 14.12887886948428
SL-16 R/B               
1 31793U 07029B   25322.72496700  .00000285  00000+0  17237-3 0  9997
2 31793  70.9777  45.6365 0002200 262.2810 264.4536 14.14814380949675
KORONAS-FOTON           
1 33504U 09003A   25322.59548191  .00013627  00000+0  33472-3 0  9993
2 33504  82.4338  31.1057 0011469 190.0862 170.0155 15.40460767928625
CZ-2C R/B               
1 37731U 11030B   25322.41334750  .00002467  00000+0  31951-3 0  9997
2 37731  97.8369 277.0659 0052925 354.2887 119.4822 14.80781217773622
