CCSDS_OMM_VERS = 2.0
CREATION_DATE  = 
ORIGINATOR     = 

OBJECT_NAME    = ARIANE 5 R/B
OBJECT_ID      = 2004-049H
CENTER_NAME    = EARTH
REF_FRAME      = TEME
TIME_SYSTEM    = UTC
MEAN_ELEMENT_THEORY = SGP/SGP4

EPOCH          = 2025-11-18T19:11:10.461696
MEAN_MOTION    = 14.84940323
ECCENTRICITY   = .0084486
INCLINATION    = 98.2517
RA_OF_ASC_NODE = 122.2252
ARG_OF_PERICENTER = 351.3260
MEAN_ANOMALY   = 8.6489

EPHEMERIS_TYPE = 0
CLASSIFICATION_TYPE = U
NORAD_CAT_ID   = 28499
ELEMENT_SET_NO = 999
REV_AT_EPOCH   = 12933
BSTAR          = .13308E-3
MEAN_MOTION_DOT = .1143E-4
MEAN_MOTION_DDOT = 0

CCSDS_OMM_VERS = 2.0
CREATION_DATE  = 
ORIGINATOR     = 

OBJECT_NAME    = CZ-2D R/B
OBJECT_ID      = 2005-024B
CENTER_NAME    = EARTH
REF_FRAME      = TEME
TIME_SYSTEM    = UTC
MEAN_ELEMENT_THEORY = SGP/SGP4

EPOCH          = 2025-11-18T19:22:11.558208
MEAN_MOTION    = 15.51643762
ECCENTRICITY   = .0008133
INCLINATION    = 97.3649
RA_OF_ASC_NODE = 329.6553
ARG_OF_PERICENTER = 74.1907
MEAN_ANOMALY   = 286.0242

EPHEMERIS_TYPE = 0
CLASSIFICATION_TYPE = U
NORAD_CAT_ID   = 28738
ELEMENT_SET_NO = 999
REV_AT_EPOCH   = 12254
BSTAR          = .48458E-3
MEAN_MOTION_DOT = .28786E-3
MEAN_MOTION_DDOT = 0

CCSDS_OMM_VERS = 2.0
CREATION_DATE  = 
ORIGINATOR     = 

OBJECT_NAME    = ALOS (DAICHI)
OBJECT_ID      = 2006-002A
CENTER_NAME    = EARTH
REF_FRAME      = TEME
TIME_SYSTEM    = UTC
MEAN_ELEMENT_THEORY = SGP/SGP4

EPOCH          = 2025-11-18T09:15:26.201088
MEAN_MOTION    = 14.69379914
ECCENTRICITY   = .0000834
INCLINATION    = 98.1050
RA_OF_ASC_NODE = 274.0517
ARG_OF_PERICENTER = 59.1645
MEAN_ANOMALY   = 300.9643

EPHEMERIS_TYPE = 0
CLASSIFICATION_TYPE = U
NORAD_CAT_ID   = 28931
ELEMENT_SET_NO = 999
REV_AT_EPOCH   = 5713
BSTAR          = .40552E-3
MEAN_MOTION_DOT = .2349E-4
MEAN_MOTION_DDOT = 0

CCSDS_OMM_VERS = 2.0
CREATION_DATE  = 
ORIGINATOR     = 

OBJECT_NAME    = H-2A R/B
OBJECT_ID      = 2006-002B
CENTER_NAME    = EARTH
REF_FRAME      = TEME
TIME_SYSTEM    = UTC
MEAN_ELEMENT_THEORY = SGP/SGP4

EPOCH          = 2025-11-18T20:43:34.672800
MEAN_MOTION    = 15.13916200
ECCENTRICITY   = .0054516
INCLINATION    = 98.2301
RA_OF_ASC_NODE = 95.6773
ARG_OF_PERICENTER = 258.0143
MEAN_ANOMALY   = 101.4972

EPHEMERIS_TYPE = 0
CLASSIFICATION_TYPE = U
NORAD_CAT_ID   = 28932
ELEMENT_SET_NO = 999
REV_AT_EPOCH   = 7765
BSTAR          = .60416E-3
MEAN_MOTION_DOT = .11281E-3
MEAN_MOTION_DDOT = 0

CCSDS_OMM_VERS = 2.0
CREATION_DATE  = 
ORIGINATOR     = 

OBJECT_NAME    = RESURS-DK 1
OBJECT_ID      = 2006-021A
CENTER_NAME    = EARTH
REF_FRAME      = TEME
TIME_SYSTEM    = UTC
MEAN_ELEMENT_THEORY = SGP/SGP4

EPOCH          = 2025-11-18T13:14:41.968032
MEAN_MOTION    = 15.11966985
ECCENTRICITY   = .0007142
INCLINATION    = 69.9310
RA_OF_ASC_NODE = 164.3377
ARG_OF_PERICENTER = 279.6409
MEAN_ANOMALY   = 80.3950

EPHEMERIS_TYPE = 0
CLASSIFICATION_TYPE = U
NORAD_CAT_ID   = 29228
ELEMENT_SET_NO = 999
REV_AT_EPOCH   = 7072
BSTAR          = .17145E-3
MEAN_MOTION_DOT = .2842E-4
MEAN_MOTION_DDOT = 0

CCSDS_OMM_VERS = 2.0
CREATION_DATE  = 
ORIGINATOR     = 

OBJECT_NAME    = CZ-4B R/B
OBJECT_ID      = 2006-046C
CENTER_NAME    = EARTH
REF_FRAME      = TEME
TIME_SYSTEM    = UTC
MEAN_ELEMENT_THEORY = SGP/SGP4

EPOCH          = 2025-11-18T14:33:12.674016
MEAN_MOTION    = 15.15537792
ECCENTRICITY   = .0032833
INCLINATION    = 97.5772
RA_OF_ASC_NODE = 2.8118
ARG_OF_PERICENTER = 293.3416
MEAN_ANOMALY   = 66.4363

EPHEMERIS_TYPE = 0
CLASSIFICATION_TYPE = U
NORAD_CAT_ID   = 29507
ELEMENT_SET_NO = 999
REV_AT_EPOCH   = 4321
BSTAR          = .32193E-3
MEAN_MOTION_DOT = .6116E-4
MEAN_MOTION_DDOT = 0

CCSDS_OMM_VERS = 2.0
CREATION_DATE  = 
ORIGINATOR     = 

OBJECT_NAME    = CZ-2C R/B
OBJECT_ID      = 2007-010B
CENTER_NAME    = EARTH
REF_FRAME      = TEME
TIME_SYSTEM    = UTC
MEAN_ELEMENT_THEORY = SGP/SGP4

EPOCH          = 2025-11-18T18:21:11.960064
MEAN_MOTION    = 14.20195577
ECCENTRICITY   = .0057937
INCLINATION    = 98.3967
RA_OF_ASC_NODE = 76.6236
ARG_OF_PERICENTER = 256.4380
MEAN_ANOMALY   = 103.0339

EPHEMERIS_TYPE = 0
CLASSIFICATION_TYPE = U
NORAD_CAT_ID   = 31114
ELEMENT_SET_NO = 999
REV_AT_EPOCH   = 96397
BSTAR          = .11221E-3
MEAN_MOTION_DOT = .202E-5
MEAN_MOTION_DDOT = 0

CCSDS_OMM_VERS = 2.0
CREATION_DATE  = 
ORIGINATOR     = 

OBJECT_NAME    = COSMO-SKYMED 1
OBJECT_ID      = 2007-023A
CENTER_NAME    = EARTH
REF_FRAME      = TEME
TIME_SYSTEM    = UTC
MEAN_ELEMENT_THEORY = SGP/SGP4

EPOCH          = 2025-11-18T20:05:20.559264
MEAN_MOTION    = 14.95519629
ECCENTRICITY   = .0001061
INCLINATION    = 97.8840
RA_OF_ASC_NODE = 148.0834
ARG_OF_PERICENTER = 81.0428
MEAN_ANOMALY   = 279.0913

EPHEMERIS_TYPE = 0
CLASSIFICATION_TYPE = U
NORAD_CAT_ID   = 31598
ELEMENT_SET_NO = 999
REV_AT_EPOCH   = 99832
BSTAR          = .41762E-3
MEAN_MOTION_DOT = .4569E-4
MEAN_MOTION_DDOT = 0

CCSDS_OMM_VERS = 2.0
CREATION_DATE  = 
ORIGINATOR     = 

OBJECT_NAME    = COSMOS 2428
OBJECT_ID      = 2007-029A
CENTER_NAME    = EARTH
REF_FRAME      = TEME
TIME_SYSTEM    = UTC
MEAN_ELEMENT_THEORY = SGP/SGP4

EPOCH          = 2025-11-18T17:42:30.759264
MEAN_MOTION    = 14.12887886
ECCENTRICITY   = .0002413
INCLINATION    = 70.9369
RA_OF_ASC_NODE = 76.2701
ARG_OF_PERICENTER = 64.6600
MEAN_ANOMALY   = 295.4771

EPHEMERIS_TYPE = 0
CLASSIFICATION_TYPE = U
NORAD_CAT_ID   = 31792
ELEMENT_SET_NO = 999
REV_AT_EPOCH   = 94842
BSTAR          = -.66867E-4
MEAN_MOTION_DOT = -.172E-5
MEAN_MOTION_DDOT = 0

CCSDS_OMM_VERS = 2.0
CREATION_DATE  = 
ORIGINATOR     = 

OBJECT_NAME    = SL-16 R/B
OBJECT_ID      = 2007-029B
CENTER_NAME    = EARTH
REF_FRAME      = TEME
TIME_SYSTEM    = UTC
MEAN_ELEMENT_THEORY = SGP/SGP4

EPOCH          = 2025-11-18T17:23:57.148800
MEAN_MOTION    = 14.14814380
ECCENTRICITY   = .00022
INCLINATION    = 70.9777
RA_OF_ASC_NODE = 45.6365
ARG_OF_PERICENTER = 262.2810
MEAN_ANOMALY   = 264.4536

EPHEMERIS_TYPE = 0
CLASSIFICATION_TYPE = U
NORAD_CAT_ID   = 31793
ELEMENT_SET_NO = 999
REV_AT_EPOCH   = 94967
BSTAR          = .17237E-3
MEAN_MOTION_DOT = .285E-5
MEAN_MOTION_DDOT = 0

CCSDS_OMM_VERS = 2.0
CREATION_DATE  = 
ORIGINATOR     = 

OBJECT_NAME    = KORONAS-FOTON
OBJECT_ID      = 2009-003A
CENTER_NAME    = EARTH
REF_FRAME      = TEME
TIME_SYSTEM    = UTC
MEAN_ELEMENT_THEORY = SGP/SGP4

EPOCH          = 2025-11-18T14:17:29.637024
MEAN_MOTION    = 15.40460767
ECCENTRICITY   = .0011469
INCLINATION    = 82.4338
RA_OF_ASC_NODE = 31.1057
ARG_OF_PERICENTER = 190.0862
MEAN_ANOMALY   = 170.0155

EPHEMERIS_TYPE = 0
CLASSIFICATION_TYPE = U
NORAD_CAT_ID   = 33504
ELEMENT_SET_NO = 999
REV_AT_EPOCH   = 92862
BSTAR          = .33472E-3
MEAN_MOTION_DOT = .13627E-3
MEAN_MOTION_DDOT = 0

CCSDS_OMM_VERS = 2.0
CREATION_DATE  = 
ORIGINATOR     = 

OBJECT_NAME    = CZ-2C R/B
OBJECT_ID      = 2011-030B
CENTER_NAME    = EARTH
REF_FRAME      = TEME
TIME_SYSTEM    = UTC
MEAN_ELEMENT_THEORY = SGP/SGP4

EPOCH          = 2025-11-18T09:55:13.224000
MEAN_MOTION    = 14.80781217
ECCENTRICITY   = .0052925
INCLINATION    = 97.8369
RA_OF_ASC_NODE = 277.0659
ARG_OF_PERICENTER = 354.2887
MEAN_ANOMALY   = 119.4822

EPHEMERIS_TYPE = 0
CLASSIFICATION_TYPE = U
NORAD_CAT_ID   = 37731
ELEMENT_SET_NO = 999
REV_AT_EPOCH   = 77362
BSTAR          = .31951E-3
MEAN_MOTION_DOT = .2467E-4
MEAN_MOTION_DDOT = 0

